SL-14 R/B               
1 16496U 86006B   26073.90434849  .00000827  00000+0  85470-4 0  9999
2 16496  82.5237 254.8279 0075092 255.1712 104.1178 14.86823328149986
COSMOS 1743             
1 16719U 86034A   26073.52102420  .00048940  00000+0  62794-3 0  9994
2 16719  82.5290  68.7583 0001693 244.7461 115.3620 15.58934649181008
SL-14 R/B               
1 16792U 86046B   26073.52217360  .00000574  00000+0  63320-4 0  9996
2 16792  82.4783  75.6140 0022297 208.6883 151.3108 14.85595769127120
SL-14 R/B               
1 16882U 86055B   26073.87525066  .00000469  00000+0  51277-4 0  9990
2 16882  82.5190 121.7998 0017780 318.6278 214.4896 14.85647739120132
AJISAI (EGS)            
1 16908U 86061A   26073.93864377 -.00000086  00000+0  82682-4 0  9994
2 16908  50.0083  77.2062 0011287 300.5356 143.1437 12.44515686468651
SL-14 R/B               
1 17567U 87024B   26073.75580170  .00000551  00000+0  59965-4 0  9996
2 17567  82.5244  88.0006 0016823 241.6751 118.2769 14.86137507 88889
COSMOS 1833             
1 17589U 87027A   26073.95713321 -.00000202  00000+0 -81970-4 0  9997
2 17589  70.9211 314.9486 0024006 207.0526 152.9346 14.13053318 11068
SL-16 R/B               
1 17590U 87027B   26073.91553682  .00000023  00000+0  35348-4 0  9994
2 17590  70.9992 265.4818 0003182 130.8618 229.2782 14.17166605 16089
SL-14 R/B               
1 17912U 87038B   26073.75338223  .00000519  00000+0  57297-4 0  9995
2 17912  82.4993 292.0370 0020088 144.2734 215.9831 14.85374380 79988
COSMOS 1844             
1 17973U 87041A   26073.91599849 -.00000101  00000+0 -27409-4 0  9998
2 17973  70.9004  23.1516 0030291  10.1915 349.9814 14.14551300  4320
SL-14 R/B               
1 18153U 87055B   26073.72939496  .00000579  00000+0  63912-4 0  9995
2 18153  82.5029 344.2829 0020700   1.4719 358.6554 14.85635917 70685
COSMOS 1867             
1 18187U 87060A   26073.89047074 -.00000008  00000+0  34497-4 0  9992
2 18187  65.0103 292.1407 0014576 278.9577  80.9857 14.31503835 20681
SL-14 R/B               
1 18749U 88001B   26073.85978143  .00000629  00000+0  69853-4 0  9990
2 18749  82.5159 190.4986 0017163 217.5233 142.4786 14.85534773 42790
COSMOS 1933             
1 18958U 88020A   26073.93169066  .00005404  00000+0  26407-3 0  9991
2 18958  82.5104 245.7245 0004324 165.6738 194.4619 15.18040732 51024
SL-3 R/B                
1 19046U 88032B   26073.93343999  .00006019  00000+0  28066-3 0  9998
2 19046  97.5193  57.1659 0024836 212.2131 147.7588 15.19977005 52904
SL-16 R/B               
1 19120U 88039B   26073.70130515  .00000181  00000+0  10820-3 0  9994
2 19120  71.0140  57.9494 0023049 327.0387  32.9300 14.19616632959092
COSMOS 1953             
1 19210U 88050A   26073.66625274  .00009867  00000+0  35253-3 0  9990
2 19210  82.5103 153.2426 0012587 106.8084 253.4538 15.28619423 38548
