[{"OBJECT_NAME":"SL-14 R/B","OBJECT_ID":"1986-006B","EPOCH":"2026-03-14T21:42:15.709536","MEAN_MOTION":14.86823328,"ECCENTRICITY":0.00750926,"INCLINATION":82.5237,"RA_OF_ASC_NODE":254.8279,"ARG_OF_PERICENTER":255.1712,"MEAN_ANOMALY":104.1178,"EPHEMERIS_TYPE":0,"CLASSIFICATION_TYPE":"U","NORAD_CAT_ID":16496,"ELEMENT_SET_NO":999,"REV_AT_EPOCH":14998,"BSTAR":8.5469978e-5,"MEAN_MOTION_DOT":8.27e-6,"MEAN_MOTION_DDOT":0},{"OBJECT_NAME":"COSMOS 1743","OBJECT_ID":"1986-034A","EPOCH":"2026-03-14T12:30:16.490880","MEAN_MOTION":15.58934649,"ECCENTRICITY":0.00016932,"INCLINATION":82.529,"RA_OF_ASC_NODE":68.7583,"ARG_OF_PERICENTER":244.7461,"MEAN_ANOMALY":115.362,"EPHEMERIS_TYPE":0,"CLASSIFICATION_TYPE":"U","NORAD_CAT_ID":16719,"ELEMENT_SET_NO":999,"REV_AT_EPOCH":18100,"BSTAR":0.00062793788,"MEAN_MOTION_DOT":0.0004894,"MEAN_MOTION_DDOT":0},{"OBJECT_NAME":"SL-14 R/B","OBJECT_ID":"1986-046B","EPOCH":"2026-03-14T12:31:55.799040","MEAN_MOTION":14.85595769,"ECCENTRICITY":0.00222973,"INCLINATION":82.4783,"RA_OF_ASC_NODE":75.614,"ARG_OF_PERICENTER":208.6883,"MEAN_ANOMALY":151.3108,"EPHEMERIS_TYPE":0,"CLASSIFICATION_TYPE":"U","NORAD_CAT_ID":16792,"ELEMENT_SET_NO":999,"REV_AT_EPOCH":12712,"BSTAR":6.3319674e-5,"MEAN_MOTION_DOT":5.74e-6,"MEAN_MOTION_DDOT":0},{"OBJECT_NAME":"SL-14 R/B","OBJECT_ID":"1986-055B","EPOCH":"2026-03-14T21:00:21.657024","MEAN_MOTION":14.85647739,"ECCENTRICITY":0.00177805,"INCLINATION":82.519,"RA_OF_ASC_NODE":121.7998,"ARG_OF_PERICENTER":318.6278,"MEAN_ANOMALY":214.4896,"EPHEMERIS_TYPE":0,"CLASSIFICATION_TYPE":"U","NORAD_CAT_ID":16882,"ELEMENT_SET_NO":999,"REV_AT_EPOCH":12013,"BSTAR":5.1277076e-5,"MEAN_MOTION_DOT":4.69e-6,"MEAN_MOTION_DDOT":0},{"OBJECT_NAME":"AJISAI (EGS)","OBJECT_ID":"1986-061A","EPOCH":"2026-03-14T22:31:38.821728","MEAN_MOTION":12.44515686,"ECCENTRICITY":0.00112879,"INCLINATION":50.0083,"RA_OF_ASC_NODE":77.2062,"ARG_OF_PERICENTER":300.5356,"MEAN_ANOMALY":143.1437,"EPHEMERIS_TYPE":0,"CLASSIFICATION_TYPE":"U","NORAD_CAT_ID":16908,"ELEMENT_SET_NO":999,"REV_AT_EPOCH":46865,"BSTAR":8.2681588e-5,"MEAN_MOTION_DOT":-8.6e-7,"MEAN_MOTION_DDOT":0},{"OBJECT_NAME":"SL-14 R/B","OBJECT_ID":"1987-024B","EPOCH":"2026-03-14T18:08:21.266880","MEAN_MOTION":14.86137507,"ECCENTRICITY":0.00168235,"INCLINATION":82.5244,"RA_OF_ASC_NODE":88.0006,"ARG_OF_PERICENTER":241.6751,"MEAN_ANOMALY":118.2769,"EPHEMERIS_TYPE":0,"CLASSIFICATION_TYPE":"U","NORAD_CAT_ID":17567,"ELEMENT_SET_NO":999,"REV_AT_EPOCH":8888,"BSTAR":5.9964785e-5,"MEAN_MOTION_DOT":5.51e-6,"MEAN_MOTION_DDOT":0},{"OBJECT_NAME":"COSMOS 1833","OBJECT_ID":"1987-027A","EPOCH":"2026-03-14T22:58:16.309344","MEAN_MOTION":14.13053318,"ECCENTRICITY":0.00240063,"INCLINATION":70.9211,"RA_OF_ASC_NODE":314.9486,"ARG_OF_PERICENTER":207.0526,"MEAN_ANOMALY":152.9346,"EPHEMERIS_TYPE":0,"CLASSIFICATION_TYPE":"U","NORAD_CAT_ID":17589,"ELEMENT_SET_NO":999,"REV_AT_EPOCH":1106,"BSTAR":-8.1969712e-5,"MEAN_MOTION_DOT":-2.02e-6,"MEAN_MOTION_DDOT":0},{"OBJECT_NAME":"SL-16 R/B","OBJECT_ID":"1987-027B","EPOCH":"2026-03-14T21:58:22.381248","MEAN_MOTION":14.17166605,"ECCENTRICITY":0.00031827,"INCLINATION":70.9992,"RA_OF_ASC_NODE":265.4818,"ARG_OF_PERICENTER":130.8618,"MEAN_ANOMALY":229.2782,"EPHEMERIS_TYPE":0,"CLASSIFICATION_TYPE":"U","NORAD_CAT_ID":17590,"ELEMENT_SET_NO":999,"REV_AT_EPOCH":1608,"BSTAR":3.5348434e-5,"MEAN_MOTION_DOT":2.3e-7,"MEAN_MOTION_DDOT":0},{"OBJECT_NAME":"SL-14 R/B","OBJECT_ID":"1987-038B","EPOCH":"2026-03-14T18:04:52.224672","MEAN_MOTION":14.8537438,"ECCENTRICITY":0.00200888,"INCLINATION":82.4993,"RA_OF_ASC_NODE":292.037,"ARG_OF_PERICENTER":144.2734,"MEAN_ANOMALY":215.9831,"EPHEMERIS_TYPE":0,"CLASSIFICATION_TYPE":"U","NORAD_CAT_ID":17912,"ELEMENT_SET_NO":999,"REV_AT_EPOCH":7998,"BSTAR":5.7297484e-5,"MEAN_MOTION_DOT":5.19e-6,"MEAN_MOTION_DDOT":0},{"OBJECT_NAME":"COSMOS 1844","OBJECT_ID":"1987-041A","EPOCH":"2026-03-14T21:59:02.269536","MEAN_MOTION":14.145513,"ECCENTRICITY":0.00302913,"INCLINATION":70.9004,"RA_OF_ASC_NODE":23.1516,"ARG_OF_PERICENTER":10.1915,"MEAN_ANOMALY":349.9814,"EPHEMERIS_TYPE":0,"CLASSIFICATION_TYPE":"U","NORAD_CAT_ID":17973,"ELEMENT_SET_NO":999,"REV_AT_EPOCH":432,"BSTAR":-2.7408798e-5,"MEAN_MOTION_DOT":-1.01e-6,"MEAN_MOTION_DDOT":0},{"OBJECT_NAME":"SL-14 R/B","OBJECT_ID":"1987-055B","EPOCH":"2026-03-14T17:30:19.724544","MEAN_MOTION":14.85635917,"ECCENTRICITY":0.00207004,"INCLINATION":82.5029,"RA_OF_ASC_NODE":344.2829,"ARG_OF_PERICENTER":1.4719,"MEAN_ANOMALY":358.6554,"EPHEMERIS_TYPE":0,"CLASSIFICATION_TYPE":"U","NORAD_CAT_ID":18153,"ELEMENT_SET_NO":999,"REV_AT_EPOCH":7068,"BSTAR":6.3912282e-5,"MEAN_MOTION_DOT":5.79e-6,"MEAN_MOTION_DDOT":0},{"OBJECT_NAME":"COSMOS 1867","OBJECT_ID":"1987-060A","EPOCH":"2026-03-14T21:22:16.671936","MEAN_MOTION":14.31503835,"ECCENTRICITY":0.00145765,"INCLINATION":65.0103,"RA_OF_ASC_NODE":292.1407,"ARG_OF_PERICENTER":278.9577,"MEAN_ANOMALY":80.9857,"EPHEMERIS_TYPE":0,"CLASSIFICATION_TYPE":"U","NORAD_CAT_ID":18187,"ELEMENT_SET_NO":999,"REV_AT_EPOCH":2068,"BSTAR":3.4496899e-5,"MEAN_MOTION_DOT":-8.0e-8,"MEAN_MOTION_DDOT":0},{"OBJECT_NAME":"SL-14 R/B","OBJECT_ID":"1988-001B","EPOCH":"2026-03-14T20:38:05.115552","MEAN_MOTION":14.85534773,"ECCENTRICITY":0.00171638,"INCLINATION":82.5159,"RA_OF_ASC_NODE":190.4986,"ARG_OF_PERICENTER":217.5233,"MEAN_ANOMALY":142.4786,"EPHEMERIS_TYPE":0,"CLASSIFICATION_TYPE":"U","NORAD_CAT_ID":18749,"ELEMENT_SET_NO":999,"REV_AT_EPOCH":4279,"BSTAR":6.9853101e-5,"MEAN_MOTION_DOT":6.29e-6,"MEAN_MOTION_DDOT":0},{"OBJECT_NAME":"COSMOS 1933","OBJECT_ID":"1988-020A","EPOCH":"2026-03-14T22:21:38.073024","MEAN_MOTION":15.18040732,"ECCENTRICITY":0.0004324,"INCLINATION":82.5104,"RA_OF_ASC_NODE":245.7245,"ARG_OF_PERICENTER":165.6738,"MEAN_ANOMALY":194.4619,"EPHEMERIS_TYPE":0,"CLASSIFICATION_TYPE":"U","NORAD_CAT_ID":18958,"ELEMENT_SET_NO":999,"REV_AT_EPOCH":5102,"BSTAR":0.00026406821,"MEAN_MOTION_DOT":5.404e-5,"MEAN_MOTION_DDOT":0},{"OBJECT_NAME":"SL-3 R/B","OBJECT_ID":"1988-032B","EPOCH":"2026-03-14T22:24:09.215136","MEAN_MOTION":15.19977005,"ECCENTRICITY":0.00248363,"INCLINATION":97.5193,"RA_OF_ASC_NODE":57.1659,"ARG_OF_PERICENTER":212.2131,"MEAN_ANOMALY":147.7588,"EPHEMERIS_TYPE":0,"CLASSIFICATION_TYPE":"U","NORAD_CAT_ID":19046,"ELEMENT_SET_NO":999,"REV_AT_EPOCH":5290,"BSTAR":0.00028066346,"MEAN_MOTION_DOT":6.019e-5,"MEAN_MOTION_DDOT":0},{"OBJECT_NAME":"SL-16 R/B","OBJECT_ID":"1988-039B","EPOCH":"2026-03-14T16:49:52.764960","MEAN_MOTION":14.19616632,"ECCENTRICITY":0.0023049,"INCLINATION":71.014,"RA_OF_ASC_NODE":57.9494,"ARG_OF_PERICENTER":327.0387,"MEAN_ANOMALY":32.93,"EPHEMERIS_TYPE":0,"CLASSIFICATION_TYPE":"U","NORAD_CAT_ID":19120,"ELEMENT_SET_NO":999,"REV_AT_EPOCH":95909,"BSTAR":0.00010820165,"MEAN_MOTION_DOT":1.81e-6,"MEAN_MOTION_DDOT":0},{"OBJECT_NAME":"COSMOS 1953","OBJECT_ID":"1988-050A","EPOCH":"2026-03-14T15:59:24.236736","MEAN_MOTION":15.28619423,"ECCENTRICITY":0.00125874,"INCLINATION":82.5103,"RA_OF_ASC_NODE":153.2426,"ARG_OF_PERICENTER":106.8084,"MEAN_ANOMALY":253.4538,"EPHEMERIS_TYPE":0,"CLASSIFICATION_TYPE":"U","NORAD_CAT_ID":19210,"ELEMENT_SET_NO":999,"REV_AT_EPOCH":3854,"BSTAR":0.00035252549,"MEAN_MOTION_DOT":9.867e-5,"MEAN_MOTION_DDOT":0}]
